{"type": "FeatureCollection", "features": [ {"type": "Feature", "properties": {"norad_id": 66436, "name": "STARLINK-35501", "group": "last-30-days", "lat": 20.56611917903275, "lon": 118.75041440959559, "alt_km": 412.61842727437124, "timestamp": "2025-12-04T13:51:59.226454+00:00", "meta": {"OBJECT_NAME": "STARLINK-35501", "OBJECT_ID": "2025-259Q", "EPOCH": "2025-12-04T08:00:01.999872", "MEAN_MOTION": 15.50596765, "ECCENTRICITY": 0.00016746, "INCLINATION": 43.0005, "RA_OF_ASC_NODE": 96.4374, "ARG_OF_PERICENTER": 256.9412, "MEAN_ANOMALY": 208.1673, "EPHEMERIS_TYPE": 0, "CLASSIFICATION_TYPE": "U", "NORAD_CAT_ID": 66436, "ELEMENT_SET_NO": 999, "REV_AT_EPOCH": 492, "BSTAR": -0.0013378338, "MEAN_MOTION_DOT": -0.00078099, "MEAN_MOTION_DDOT": 0}, "tle": {"line1": "1 66436U 25259Q   25338.33335648 -.00078099  00000+0 -13378-2 0  9992", "line2": "2 66436  43.0005  96.4374 0001674 256.9412 208.1673 15.50596765  4920"}}, "geometry": {"type": "Point", "coordinates": [118.75041440959559, 20.56611917903275]}}, {"type": "Feature", "properties": {"norad_id": 66437, "name": "STARLINK-35474", "group": "last-30-days", "lat": 21.752516388105896, "lon": 120.355301234772, "alt_km": 412.25724122786414, "timestamp": "2025-12-04T13:51:59.226464+00:00", "meta": {"OBJECT_NAME": "STARLINK-35474", "OBJECT_ID": "2025-259R", "EPOCH": "2025-12-04T08:00:01.999872", "MEAN_MOTION": 15.50586681, "ECCENTRICITY": 0.00013853, "INCLINATION": 43.0005, "RA_OF_ASC_NODE": 96.4328, "ARG_OF_PERICENTER": 262.5754, "MEAN_ANOMALY": 204.4523, "EPHEMERIS_TYPE": 0, "CLASSIFICATION_TYPE": "U", "NORAD_CAT_ID": 66437, "ELEMENT_SET_NO": 999, "REV_AT_EPOCH": 492, "BSTAR": -0.0010965123, "MEAN_MOTION_DOT": -0.00064161, "MEAN_MOTION_DDOT": 0}, "tle": {"line1": "1 66437U 25259R   25338.33335648 -.00064161  00000+0 -10965-2 0  9997", "line2": "2 66437  43.0005  96.4328 0001385 262.5754 204.4523 15.50586681  4920"}}, "geometry": {"type": "Point", "coordinates": [120.355301234772, 21.752516388105896]}}, {"type": "Feature", "properties": {"norad_id": 66438, "name": "STARLINK-34681", "group": "last-30-days", "lat": 22.920470260957185, "lon": 121.98308502257164, "alt_km": 412.06059598871707, "timestamp": "2025-12-04T13:51:59.226474+00:00", "meta": {"OBJECT_NAME": "STARLINK-34681", "OBJECT_ID": "2025-259S", "EPOCH": "2025-12-04T08:00:01.999872", "MEAN_MOTION": 15.50584235, "ECCENTRICITY": 0.00013969, "INCLINATION": 43.0004, "RA_OF_ASC_NODE": 96.4281, "ARG_OF_PERICENTER": 264.8084, "MEAN_ANOMALY": 204.1262, "EPHEMERIS_TYPE": 0, "CLASSIFICATION_TYPE": "U", "NORAD_CAT_ID": 66438, "ELEMENT_SET_NO": 999, "REV_AT_EPOCH": 482, "BSTAR": -0.00090875088, "MEAN_MOTION_DOT": -0.00053301, "MEAN_MOTION_DDOT": 0}, "tle": {"line1": "1 66438U 25259S   25338.33335648 -.00053301  00000+0 -90875-3 0  9991", "line2": "2 66438  43.0004  96.4281 0001396 264.8084 204.1262 15.50584235  4820"}}, "geometry": {"type": "Point", "coordinates": [121.98308502257164, 22.920470260957185]}}, {"type": "Feature", "properties": {"norad_id": 66439, "name": "STARLINK-35327", "group": "last-30-days", "lat": 19.360449138493657, "lon": 117.16711031330165, "alt_km": 412.5794961391157, "timestamp": "2025-12-04T13:51:59.226488+00:00", "meta": {"OBJECT_NAME": "STARLINK-35327", "OBJECT_ID": "2025-259T", "EPOCH": "2025-12-04T08:00:01.999872", "MEAN_MOTION": 15.505896, "ECCENTRICITY": 0.00014351, "INCLINATION": 43.0006, "RA_OF_ASC_NODE": 96.4447, "ARG_OF_PERICENTER": 264.802, "MEAN_ANOMALY": 198.3928, "EPHEMERIS_TYPE": 0, "CLASSIFICATION_TYPE": "U", "NORAD_CAT_ID": 66439, "ELEMENT_SET_NO": 999, "REV_AT_EPOCH": 492, "BSTAR": -0.0012354999, "MEAN_MOTION_DOT": -0.00072185, "MEAN_MOTION_DDOT": 0}, "tle": {"line1": "1 66439U 25259T   25338.33335648 -.00072185  00000+0 -12355-2 0  9999", "line2": "2 66439  43.0006  96.4447 0001435 264.8020 198.3928 15.50589600  4926"}}, "geometry": {"type": "Point", "coordinates": [117.16711031330165, 19.360449138493657]}}, {"type": "Feature", "properties": {"norad_id": 66440, "name": "STARLINK-35405", "group": "last-30-days", "lat": 24.087156254398014, "lon": 123.66298589206593, "alt_km": 412.0387228675745, "timestamp": "2025-12-04T13:51:59.226498+00:00", "meta": {"OBJECT_NAME": "STARLINK-35405", "OBJECT_ID": "2025-259U", "EPOCH": "2025-12-04T08:00:01.999872", "MEAN_MOTION": 15.5058965, "ECCENTRICITY": 0.00014821, "INCLINATION": 43.0005, "RA_OF_ASC_NODE": 96.4245, "ARG_OF_PERICENTER": 258.5339, "MEAN_ANOMALY": 212.3355, "EPHEMERIS_TYPE": 0, "CLASSIFICATION_TYPE": "U", "NORAD_CAT_ID": 66440, "ELEMENT_SET_NO": 999, "REV_AT_EPOCH": 492, "BSTAR": -0.001339558, "MEAN_MOTION_DOT": -0.00078177, "MEAN_MOTION_DDOT": 0}, "tle": {"line1": "1 66440U 25259U   25338.33335648 -.00078177  00000+0 -13396-2 0  9994", "line2": "2 66440  43.0005  96.4245 0001482 258.5339 212.3355 15.50589650  4924"}}, "geometry": {"type": "Point", "coordinates": [123.66298589206593, 24.087156254398014]}}, {"type": "Feature", "properties": {"norad_id": 66441, "name": "STARLINK-35426", "group": "last-30-days", "lat": 25.22218749336006, "lon": 125.35209242551704, "alt_km": 411.8533695006845, "timestamp": "2025-12-04T13:51:59.226508+00:00", "meta": {"OBJECT_NAME": "STARLINK-35426", "OBJECT_ID": "2025-259V", "EPOCH": "2025-12-04T08:00:01.999872", "MEAN_MOTION": 15.50589803, "ECCENTRICITY": 0.00014968, "INCLINATION": 43.0004, "RA_OF_ASC_NODE": 96.4188, "ARG_OF_PERICENTER": 260.4877, "MEAN_ANOMALY": 212.2918, "EPHEMERIS_TYPE": 0, "CLASSIFICATION_TYPE": "U", "NORAD_CAT_ID": 66441, "ELEMENT_SET_NO": 999, "REV_AT_EPOCH": 492, "BSTAR": -0.0012506055, "MEAN_MOTION_DOT": -0.00073056, "MEAN_MOTION_DDOT": 0}, "tle": {"line1": "1 66441U 25259V   25338.33335648 -.00073056  00000+0 -12506-2 0  9998", "line2": "2 66441  43.0004  96.4188 0001496 260.4877 212.2918 15.50589803  4928"}}, "geometry": {"type": "Point", "coordinates": [125.35209242551704, 25.22218749336006]}}, {"type": "Feature", "properties": {"norad_id": 66442, "name": "STARLINK-34724", "group": "last-30-days", "lat": 26.34154855416636, "lon": 127.08047908656167, "alt_km": 411.5467301448307, "timestamp": "2025-12-04T13:51:59.226517+00:00", "meta": {"OBJECT_NAME": "STARLINK-34724", "OBJECT_ID": "2025-259W", "EPOCH": "2025-12-04T08:00:01.999872", "MEAN_MOTION": 15.50585904, "ECCENTRICITY": 0.0001357, "INCLINATION": 43.0004, "RA_OF_ASC_NODE": 96.4145, "ARG_OF_PERICENTER": 268.0262, "MEAN_ANOMALY": 206.6747, "EPHEMERIS_TYPE": 0, "CLASSIFICATION_TYPE": "U", "NORAD_CAT_ID": 66442, "ELEMENT_SET_NO": 999, "REV_AT_EPOCH": 492, "BSTAR": -0.0012224581, "MEAN_MOTION_DOT": -0.00071423, "MEAN_MOTION_DDOT": 0}, "tle": {"line1": "1 66442U 25259W   25338.33335648 -.00071423  00000+0 -12225-2 0  9993", "line2": "2 66442  43.0004  96.4145 0001357 268.0262 206.6747 15.50585904  4925"}}, "geometry": {"type": "Point", "coordinates": [127.08047908656167, 26.34154855416636]}}, {"type": "Feature", "properties": {"norad_id": 66443, "name": "STARLINK-35219", "group": "last-30-days", "lat": 27.439085162638154, "lon": 128.84068957729193, "alt_km": 411.3987208938097, "timestamp": "2025-12-04T13:51:59.226527+00:00", "meta": {"OBJECT_NAME": "STARLINK-35219", "OBJECT_ID": "2025-259X", "EPOCH": "2025-12-04T08:00:01.999872", "MEAN_MOTION": 15.5058622, "ECCENTRICITY": 0.00012516, "INCLINATION": 43.0005, "RA_OF_ASC_NODE": 96.4096, "ARG_OF_PERICENTER": 262.901, "MEAN_ANOMALY": 213.7193, "EPHEMERIS_TYPE": 0, "CLASSIFICATION_TYPE": "U", "NORAD_CAT_ID": 66443, "ELEMENT_SET_NO": 999, "REV_AT_EPOCH": 482, "BSTAR": -0.001255388, "MEAN_MOTION_DOT": -0.00073321, "MEAN_MOTION_DDOT": 0}, "tle": {"line1": "1 66443U 25259X   25338.33335648 -.00073321  00000+0 -12554-2 0  9998", "line2": "2 66443  43.0005  96.4096 0001251 262.9010 213.7193 15.50586220  4824"}}, "geometry": {"type": "Point", "coordinates": [128.84068957729193, 27.439085162638154]}}, {"type": "Feature", "properties": {"norad_id": 66444, "name": "STARLINK-35360", "group": "last-30-days", "lat": 30.590383744851078, "lon": 134.33992033942025, "alt_km": 411.0243699399425, "timestamp": "2025-12-04T13:51:59.226538+00:00", "meta": {"OBJECT_NAME": "STARLINK-35360", "OBJECT_ID": "2025-259Y", "EPOCH": "2025-12-04T08:00:01.999872", "MEAN_MOTION": 15.50592041, "ECCENTRICITY": 0.00014128, "INCLINATION": 43.0005, "RA_OF_ASC_NODE": 96.3946, "ARG_OF_PERICENTER": 263.1759, "MEAN_ANOMALY": 219.1942, "EPHEMERIS_TYPE": 0, "CLASSIFICATION_TYPE": "U", "NORAD_CAT_ID": 66444, "ELEMENT_SET_NO": 999, "REV_AT_EPOCH": 492, "BSTAR": -0.0014061657, "MEAN_MOTION_DOT": -0.00082014, "MEAN_MOTION_DDOT": 0}, "tle": {"line1": "1 66444U 25259Y   25338.33335648 -.00082014  00000+0 -14062-2 0  9994", "line2": "2 66444  43.0005  96.3946 0001412 263.1759 219.1942 15.50592041  4921"}}, "geometry": {"type": "Point", "coordinates": [134.33992033942025, 30.590383744851078]}}, {"type": "Feature", "properties": {"norad_id": 66445, "name": "STARLINK-34698", "group": "last-30-days", "lat": 28.51105990315004, "lon": 130.6304821091859, "alt_km": 411.390088609196, "timestamp": "2025-12-04T13:51:59.226548+00:00", "meta": {"OBJECT_NAME": "STARLINK-34698", "OBJECT_ID": "2025-259Z", "EPOCH": "2025-12-04T08:00:01.999872", "MEAN_MOTION": 15.50593478, "ECCENTRICITY": 0.00014809, "INCLINATION": 43.0005, "RA_OF_ASC_NODE": 96.404, "ARG_OF_PERICENTER": 258.8727, "MEAN_ANOMALY": 219.6534, "EPHEMERIS_TYPE": 0, "CLASSIFICATION_TYPE": "U", "NORAD_CAT_ID": 66445, "ELEMENT_SET_NO": 999, "REV_AT_EPOCH": 482, "BSTAR": -0.0013063054, "MEAN_MOTION_DOT": -0.00076273, "MEAN_MOTION_DDOT": 0}, "tle": {"line1": "1 66445U 25259Z   25338.33335648 -.00076273  00000+0 -13063-2 0  9995", "line2": "2 66445  43.0005  96.4040 0001480 258.8727 219.6534 15.50593478  4825"}}, "geometry": {"type": "Point", "coordinates": [130.6304821091859, 28.51105990315004]}}]}